*******************************************************************************
JPL/HORIZONS                951 Gaspra (A916 OJ)           2023-Sep-04 11:09:20
Rec #:     951 (+COV) Soln.date: 2023-Aug-25_02:19:47   # obs: 4834 (1913-2023)
 
IAU76/J2000 helio. ecliptic osc. elements (au, days, deg., period=Julian yrs):
 
  EPOCH=  2456634.5 ! 2013-Dec-08.00 (TDB)         Residual RMS= .27969
   EC= .17365785989845     QR= 1.825698700943918   TP= 2457222.9989475193
   OM= 253.1679491236551   W=  129.5354767335699   IN= 4.103145730693778
   A= 2.209373832392907    MA= 183.3775293834859   ADIST= 2.593048963841896
   PER= 3.28407            N= .300123681           ANGMOM= .025180639
   DAN= 2.40905            DDN= 1.92946            L= 22.7756328
   B= 3.1633743            MOID= .831406           TP= 2015-Jul-19.4989475193
 
Asteroid physical parameters (km, seconds, rotational period in hours):
   GM= n.a.                RAD= 6.1                ROTPER= 7.042
   H= 11.47                G= .150                 B-V= .870
                           ALBEDO= .246            STYP= S

ASTEROID comments: 
1: soln ref.= JPL#145, OCC=0
2: source=ORB
*******************************************************************************


*******************************************************************************
Ephemeris / API_USER Mon Sep  4 11:09:20 2023 Pasadena, USA      / Horizons
*******************************************************************************
Target body name: 951 Gaspra (A916 OJ)            {source: JPL#145}
Center body name: Solar System Barycenter (0)     {source: DE441}
Center-site name: BODY CENTER
*******************************************************************************
Start time      : A.D. 2023-Aug-12 00:00:00.0000 TDB
Stop  time      : A.D. 2023-Aug-13 00:00:00.0000 TDB
Step-size       : 2880 minutes
*******************************************************************************
Center geodetic : 0.0, 0.0, 0.0                   {E-lon(deg),Lat(deg),Alt(km)}
Center cylindric: 0.0, 0.0, 0.0                   {E-lon(deg),Dxy(km),Dz(km)}
Center radii    : (undefined)
Small perturbers: Yes                             {source: SB441-N16}
Output units    : KM-S
Calendar mode   : Mixed Julian/Gregorian
Output type     : GEOMETRIC cartesian states
Output format   : 2 (position and velocity)
Reference frame : Ecliptic of J2000.0
*******************************************************************************
Initial IAU76/J2000 heliocentric ecliptic osculating elements (au, days, deg.):
  EPOCH=  2456634.5 ! 2013-Dec-08.00 (TDB)         Residual RMS= .27969        
   EC= .17365785989845     QR= 1.825698700943918   TP= 2457222.9989475193      
   OM= 253.1679491236551   W=  129.5354767335699   IN= 4.103145730693778       
  Equivalent ICRF heliocentric cartesian coordinates (au, au/d):
   X=-2.342661433527826E+00  Y=-9.561420524624809E-01  Z=-5.649100207746430E-01
  VX= 4.184700310535521E-03 VY=-8.217120045574313E-03 VZ=-3.051213436235443E-03
Asteroid physical parameters (km, seconds, rotational period in hours):        
   GM= n.a.                RAD= 6.1                ROTPER= 7.042               
   H= 11.47                G= .150                 B-V= .870                   
                           ALBEDO= .246            STYP= S                     
*******************************************************************************
JDTDB
   X     Y     Z
   VX    VY    VZ
*******************************************************************************
$$SOE
2460168.500000000 = A.D. 2023-Aug-12 00:00:00.0000 TDB 
 X =-3.795145954653953E+08 Y =-7.445000460656963E+07 Z =-2.437201905174426E+07
 VX= 2.511470862696768E+00 VY=-1.672632417861197E+01 VZ= 5.227837248762182E-01
$$EOE
*******************************************************************************
 
TIME

  Barycentric Dynamical Time ("TDB" or T_eph) output was requested. This
continuous coordinate time is equivalent to the relativistic proper time
of a clock at rest in a reference frame co-moving with the solar system
barycenter but outside the system's gravity well. It is the independent
variable in the solar system relativistic equations of motion.

  TDB runs at a uniform rate of one SI second per second and is independent
of irregularities in Earth's rotation.
 
CALENDAR SYSTEM

  Mixed calendar mode was active such that calendar dates after AD 1582-Oct-15
(if any) are in the modern Gregorian system. Dates prior to 1582-Oct-5 (if any)
are in the Julian calendar system, which is automatically extended for dates
prior to its adoption on 45-Jan-1 BC.  The Julian calendar is useful for
matching historical dates. The Gregorian calendar more accurately corresponds
to the Earth's orbital motion and seasons. A "Gregorian-only" calendar mode is
available if such physical events are the primary interest.

REFERENCE FRAME AND COORDINATES

  Ecliptic at the standard reference epoch

    Reference epoch: J2000.0
    X-Y plane: adopted Earth orbital plane at the reference epoch
               Note: IAU76 obliquity of 84381.448 arcseconds wrt ICRF X-Y plane
    X-axis   : ICRF
    Z-axis   : perpendicular to the X-Y plane in the directional (+ or -) sense
               of Earth's north pole at the reference epoch.

  Symbol meaning:

    JDTDB    Julian Day Number, Barycentric Dynamical Time
      X      X-component of position vector (km)
      Y      Y-component of position vector (km)
      Z      Z-component of position vector (km)
      VX     X-component of velocity vector (km/sec)                           
      VY     Y-component of velocity vector (km/sec)                           
      VZ     Z-component of velocity vector (km/sec)                           

ABERRATIONS AND CORRECTIONS

 Geometric state vectors have NO corrections or aberrations applied.

Computations by ...

    Solar System Dynamics Group, Horizons On-Line Ephemeris System
    4800 Oak Grove Drive, Jet Propulsion Laboratory
    Pasadena, CA  91109   USA

    General site: https://ssd.jpl.nasa.gov/
    Mailing list: https://ssd.jpl.nasa.gov/email_list.html
    System news : https://ssd.jpl.nasa.gov/horizons/news.html
    User Guide  : https://ssd.jpl.nasa.gov/horizons/manual.html
    Connect     : browser        https://ssd.jpl.nasa.gov/horizons/app.html#/x
                  API            https://ssd-api.jpl.nasa.gov/doc/horizons.html
                  command-line   telnet ssd.jpl.nasa.gov 6775
                  e-mail/batch   https://ssd.jpl.nasa.gov/ftp/ssd/hrzn_batch.txt
                  scripts        https://ssd.jpl.nasa.gov/ftp/ssd/SCRIPTS
    Author      : Jon.D.Giorgini@jpl.nasa.gov
*******************************************************************************
